{
  "type": "FeatureCollection",
  "features": [
    {
      "type": "Feature",
      "properties": {
        "norad_id": 29945,
        "name": "FENGYUN 1C DEB",
        "group": "fengyun-1c-debris",
        "lat": 61.465273262552195,
        "lon": 2.6946381886985877,
        "alt_km": 866.9934249083935,
        "timestamp": "2025-12-21T20:41:08.234097+00:00",
        "meta_object_name": "FENGYUN 1C DEB",
        "meta_object_id": "1999-025JT",
        "meta_epoch": "2025-12-21T14:05:06.018144",
        "meta_mean_motion": 14.05576885,
        "meta_eccentricity": 0.00304962,
        "meta_inclination": 98.7911,
        "meta_ra_of_asc_node": 18.9626,
        "meta_arg_of_pericenter": 337.3657,
        "meta_mean_anomaly": 134.201,
        "meta_ephemeris_type": 0,
        "meta_classification_type": "U",
        "meta_norad_cat_id": 29945,
        "meta_element_set_no": 999,
        "meta_rev_at_epoch": 97102,
        "meta_bstar": 0.00021458586,
        "meta_mean_motion_dot": 3.08e-06,
        "meta_mean_motion_ddot": 0,
        "tle_line1": "1 29945U 99025JT  25355.58687521  .00000308  00000+0  21459-3 0  9990",
        "tle_line2": "2 29945  98.7911  18.9626 0030496 337.3657 134.2010 14.05576885971023"
      },
      "geometry": {
        "type": "Point",
        "coordinates": [
          2.6946381886985877,
          61.465273262552195
        ]
      }
    },
    {
      "type": "Feature",
      "properties": {
        "norad_id": 29946,
        "name": "FENGYUN 1C DEB",
        "group": "fengyun-1c-debris",
        "lat": 8.254165899637636,
        "lon": 169.14154391424609,
        "alt_km": 915.2498088051789,
        "timestamp": "2025-12-21T20:41:08.234106+00:00",
        "meta_object_name": "FENGYUN 1C DEB",
        "meta_object_id": "1999-025JU",
        "meta_epoch": "2025-12-21T11:56:48.573888",
        "meta_mean_motion": 14.08262453,
        "meta_eccentricity": 0.00802827,
        "meta_inclination": 98.7804,
        "meta_ra_of_asc_node": 347.5025,
        "meta_arg_of_pericenter": 318.7255,
        "meta_mean_anomaly": 168.3719,
        "meta_ephemeris_type": 0,
        "meta_classification_type": "U",
        "meta_norad_cat_id": 29946,
        "meta_element_set_no": 999,
        "meta_rev_at_epoch": 97170,
        "meta_bstar": 0.000239666,
        "meta_mean_motion_dot": 3.78e-06,
        "meta_mean_motion_ddot": 0,
        "tle_line1": "1 29946U 99025JU  25355.49778442  .00000378  00000+0  23967-3 0  9997",
        "tle_line2": "2 29946  98.7804 347.5025 0080282 318.7255 168.3719 14.08262453971709"
      },
      "geometry": {
        "type": "Point",
        "coordinates": [
          169.14154391424609,
          8.254165899637636
        ]
      }
    },
    {
      "type": "Feature",
      "properties": {
        "norad_id": 29947,
        "name": "FENGYUN 1C DEB",
        "group": "fengyun-1c-debris",
        "lat": -18.34368352624043,
        "lon": 29.105790504662444,
        "alt_km": 900.1532113491803,
        "timestamp": "2025-12-21T20:41:08.234115+00:00",
        "meta_object_name": "FENGYUN 1C DEB",
        "meta_object_id": "1999-025JV",
        "meta_epoch": "2025-12-19T02:20:06.910080",
        "meta_mean_motion": 14.03076836,
        "meta_eccentricity": 0.00409382,
        "meta_inclination": 98.837,
        "meta_ra_of_asc_node": 23.4652,
        "meta_arg_of_pericenter": 103.4009,
        "meta_mean_anomaly": 322.0685,
        "meta_ephemeris_type": 0,
        "meta_classification_type": "U",
        "meta_norad_cat_id": 29947,
        "meta_element_set_no": 999,
        "meta_rev_at_epoch": 96839,
        "meta_bstar": 0.00037045078,
        "meta_mean_motion_dot": 5.38e-06,
        "meta_mean_motion_ddot": 0,
        "tle_line1": "1 29947U 99025JV  25353.09730220  .00000538  00000+0  37045-3 0  9994",
        "tle_line2": "2 29947  98.8370  23.4652 0040938 103.4009 322.0685 14.03076836968390"
      },
      "geometry": {
        "type": "Point",
        "coordinates": [
          29.105790504662444,
          -18.34368352624043
        ]
      }
    },
    {
      "type": "Feature",
      "properties": {
        "norad_id": 29948,
        "name": "FENGYUN 1C DEB",
        "group": "fengyun-1c-debris",
        "lat": -47.69646390009694,
        "lon": -8.363181740350107,
        "alt_km": 893.310572010424,
        "timestamp": "2025-12-21T20:41:08.234178+00:00",
        "meta_object_name": "FENGYUN 1C DEB",
        "meta_object_id": "1999-025JW",
        "meta_epoch": "2025-12-21T11:25:45.520320",
        "meta_mean_motion": 14.06197211,
        "meta_eccentricity": 0.00840313,
        "meta_inclination": 98.8248,
        "meta_ra_of_asc_node": 341.4321,
        "meta_arg_of_pericenter": 208.8343,
        "meta_mean_anomaly": 310.5083,
        "meta_ephemeris_type": 0,
        "meta_classification_type": "U",
        "meta_norad_cat_id": 29948,
        "meta_element_set_no": 999,
        "meta_rev_at_epoch": 97099,
        "meta_bstar": 4.3684587e-05,
        "meta_mean_motion_dot": 3.1e-07,
        "meta_mean_motion_ddot": 0,
        "tle_line1": "1 29948U 99025JW  25355.47622130  .00000031  00000+0  43685-4 0  9995",
        "tle_line2": "2 29948  98.8248 341.4321 0084031 208.8343 310.5083 14.06197211970991"
      },
      "geometry": {
        "type": "Point",
        "coordinates": [
          -8.363181740350107,
          -47.69646390009694
        ]
      }
    },
    {
      "type": "Feature",
      "properties": {
        "norad_id": 29949,
        "name": "FENGYUN 1C DEB",
        "group": "fengyun-1c-debris",
        "lat": -73.0877163845099,
        "lon": 41.738727552153904,
        "alt_km": 860.9095413462001,
        "timestamp": "2025-12-21T20:41:08.234189+00:00",
        "meta_object_name": "FENGYUN 1C DEB",
        "meta_object_id": "1999-025JX",
        "meta_epoch": "2025-12-21T14:47:53.814912",
        "meta_mean_motion": 14.06828589,
        "meta_eccentricity": 0.00230314,
        "meta_inclination": 98.7616,
        "meta_ra_of_asc_node": 11.0234,
        "meta_arg_of_pericenter": 279.5247,
        "meta_mean_anomaly": 203.3198,
        "meta_ephemeris_type": 0,
        "meta_classification_type": "U",
        "meta_norad_cat_id": 29949,
        "meta_element_set_no": 999,
        "meta_rev_at_epoch": 97232,
        "meta_bstar": -3.7711645e-05,
        "meta_mean_motion_dot": -1.06e-06,
        "meta_mean_motion_ddot": 0,
        "tle_line1": "1 29949U 99025JX  25355.61659508 -.00000106  00000+0 -37712-4 0  9990",
        "tle_line2": "2 29949  98.7616  11.0234 0023031 279.5247 203.3198 14.06828589972328"
      },
      "geometry": {
        "type": "Point",
        "coordinates": [
          41.738727552153904,
          -73.0877163845099
        ]
      }
    },
    {
      "type": "Feature",
      "properties": {
        "norad_id": 29950,
        "name": "FENGYUN 1C DEB",
        "group": "fengyun-1c-debris",
        "lat": -54.399338711293794,
        "lon": -165.72380505378575,
        "alt_km": 842.9292407449766,
        "timestamp": "2025-12-21T20:41:08.234198+00:00",
        "meta_object_name": "FENGYUN 1C DEB",
        "meta_object_id": "1999-025JY",
        "meta_epoch": "2025-12-21T13:20:56.053248",
        "meta_mean_motion": 14.10337885,
        "meta_eccentricity": 0.00326308,
        "meta_inclination": 98.74,
        "meta_ra_of_asc_node": 26.3868,
        "meta_arg_of_pericenter": 216.5884,
        "meta_mean_anomaly": 267.3446,
        "meta_ephemeris_type": 0,
        "meta_classification_type": "U",
        "meta_norad_cat_id": 29950,
        "meta_element_set_no": 999,
        "meta_rev_at_epoch": 97415,
        "meta_bstar": 0.00012484282,
        "meta_mean_motion_dot": 1.8e-06,
        "meta_mean_motion_ddot": 0,
        "tle_line1": "1 29950U 99025JY  25355.55620432  .00000180  00000+0  12484-3 0  9997",
        "tle_line2": "2 29950  98.7400  26.3868 0032630 216.5884 267.3446 14.10337885974154"
      },
      "geometry": {
        "type": "Point",
        "coordinates": [
          -165.72380505378575,
          -54.399338711293794
        ]
      }
    },
    {
      "type": "Feature",
      "properties": {
        "norad_id": 29953,
        "name": "FENGYUN 1C DEB",
        "group": "fengyun-1c-debris",
        "lat": 63.21670981627209,
        "lon": -35.730567438620035,
        "alt_km": 996.4801715734238,
        "timestamp": "2025-12-21T20:41:08.234211+00:00",
        "meta_object_name": "FENGYUN 1C DEB",
        "meta_object_id": "1999-025KB",
        "meta_epoch": "2025-12-20T12:08:38.057856",
        "meta_mean_motion": 13.90855371,
        "meta_eccentricity": 0.01056476,
        "meta_inclination": 98.9378,
        "meta_ra_of_asc_node": 341.1304,
        "meta_arg_of_pericenter": 245.2856,
        "meta_mean_anomaly": 234.0453,
        "meta_ephemeris_type": 0,
        "meta_classification_type": "U",
        "meta_norad_cat_id": 29953,
        "meta_element_set_no": 999,
        "meta_rev_at_epoch": 95970,
        "meta_bstar": 0.00033966094,
        "meta_mean_motion_dot": 4.02e-06,
        "meta_mean_motion_ddot": 0,
        "tle_line1": "1 29953U 99025KB  25354.50599604  .00000402  00000+0  33966-3 0  9995",
        "tle_line2": "2 29953  98.9378 341.1304 0105647 245.2856 234.0453 13.90855371959708"
      },
      "geometry": {
        "type": "Point",
        "coordinates": [
          -35.730567438620035,
          63.21670981627209
        ]
      }
    }
  ]
}